[{"OBJECT_NAME":"IRIDIUM 152","OBJECT_ID":"2018-047D","EPOCH":"2026-04-25T16:56:10.231008","MEAN_MOTION":14.34217544,"ECCENTRICITY":0.0002096,"INCLINATION":86.3921,"RA_OF_ASC_NODE":110.28,"ARG_OF_PERICENTER":92.1014,"MEAN_ANOMALY":268.0422,"EPHEMERIS_TYPE":0,"CLASSIFICATION_TYPE":"U","NORAD_CAT_ID":43479,"ELEMENT_SET_NO":999,"REV_AT_EPOCH":41496,"BSTAR":-4.1635e-7,"MEAN_MOTION_DOT":1.9e-7,"MEAN_MOTION_DDOT":0},{"OBJECT_NAME":"IRIDIUM 147","OBJECT_ID":"2018-047E","EPOCH":"2026-04-25T17:05:18.243744","MEAN_MOTION":14.34217317,"ECCENTRICITY":0.0002241,"INCLINATION":86.3924,"RA_OF_ASC_NODE":110.2817,"ARG_OF_PERICENTER":87.0832,"MEAN_ANOMALY":273.062,"EPHEMERIS_TYPE":0,"CLASSIFICATION_TYPE":"U","NORAD_CAT_ID":43480,"ELEMENT_SET_NO":999,"REV_AT_EPOCH":41496,"BSTAR":-8.4867e-6,"MEAN_MOTION_DOT":-4.0e-8,"MEAN_MOTION_DDOT":0},{"OBJECT_NAME":"IRIDIUM 110","OBJECT_ID":"2018-047F","EPOCH":"2026-04-25T17:14:26.080224","MEAN_MOTION":14.34217598,"ECCENTRICITY":0.0001842,"INCLINATION":86.3927,"RA_OF_ASC_NODE":110.3695,"ARG_OF_PERICENTER":95.1421,"MEAN_ANOMALY":264.9985,"EPHEMERIS_TYPE":0,"CLASSIFICATION_TYPE":"U","NORAD_CAT_ID":43481,"ELEMENT_SET_NO":999,"REV_AT_EPOCH":41495,"BSTAR":-3.7447e-6,"MEAN_MOTION_DOT":9.0e-8,"MEAN_MOTION_DDOT":0},{"OBJECT_NAME":"IRIDIUM 162","OBJECT_ID":"2018-047G","EPOCH":"2026-04-25T16:18:06.919200","MEAN_MOTION":14.43281104,"ECCENTRICITY":0.0002402,"INCLINATION":86.4444,"RA_OF_ASC_NODE":110.3222,"ARG_OF_PERICENTER":92.0412,"MEAN_ANOMALY":268.1064,"EPHEMERIS_TYPE":0,"CLASSIFICATION_TYPE":"U","NORAD_CAT_ID":43482,"ELEMENT_SET_NO":999,"REV_AT_EPOCH":41755,"BSTAR":4.1328e-5,"MEAN_MOTION_DOT":1.59e-6,"MEAN_MOTION_DDOT":0},{"OBJECT_NAME":"IRIDIUM 160","OBJECT_ID":"2018-061A","EPOCH":"2026-04-25T20:57:50.442336","MEAN_MOTION":14.3421709,"ECCENTRICITY":0.0002025,"INCLINATION":86.394,"RA_OF_ASC_NODE":78.6681,"ARG_OF_PERICENTER":85.8595,"MEAN_ANOMALY":274.2832,"EPHEMERIS_TYPE":0,"CLASSIFICATION_TYPE":"U","NORAD_CAT_ID":43569,"ELEMENT_SET_NO":999,"REV_AT_EPOCH":40587,"BSTAR":-1.9445e-6,"MEAN_MOTION_DOT":1.4e-7,"MEAN_MOTION_DDOT":0},{"OBJECT_NAME":"IRIDIUM 166","OBJECT_ID":"2018-061B","EPOCH":"2026-04-25T19:53:56.188320","MEAN_MOTION":14.34217825,"ECCENTRICITY":0.0002365,"INCLINATION":86.3936,"RA_OF_ASC_NODE":78.6374,"ARG_OF_PERICENTER":84.3904,"MEAN_ANOMALY":275.7561,"EPHEMERIS_TYPE":0,"CLASSIFICATION_TYPE":"U","NORAD_CAT_ID":43570,"ELEMENT_SET_NO":999,"REV_AT_EPOCH":40589,"BSTAR":9.0382e-5,"MEAN_MOTION_DOT":2.73e-6,"MEAN_MOTION_DDOT":0},{"OBJECT_NAME":"IRIDIUM 158","OBJECT_ID":"2018-061C","EPOCH":"2026-04-25T20:48:42.483168","MEAN_MOTION":14.34217417,"ECCENTRICITY":0.0002173,"INCLINATION":86.3939,"RA_OF_ASC_NODE":78.6318,"ARG_OF_PERICENTER":89.8171,"MEAN_ANOMALY":270.3273,"EPHEMERIS_TYPE":0,"CLASSIFICATION_TYPE":"U","NORAD_CAT_ID":43571,"ELEMENT_SET_NO":999,"REV_AT_EPOCH":40586,"BSTAR":-7.8776e-6,"MEAN_MOTION_DOT":-2.0e-8,"MEAN_MOTION_DDOT":0},{"OBJECT_NAME":"IRIDIUM 165","OBJECT_ID":"2018-061D","EPOCH":"2026-04-25T19:44:46.513248","MEAN_MOTION":14.34217496,"ECCENTRICITY":0.000237,"INCLINATION":86.3938,"RA_OF_ASC_NODE":78.6953,"ARG_OF_PERICENTER":84.221,"MEAN_ANOMALY":275.9256,"EPHEMERIS_TYPE":0,"CLASSIFICATION_TYPE":"U","NORAD_CAT_ID":43572,"ELEMENT_SET_NO":999,"REV_AT_EPOCH":40588,"BSTAR":3.8487e-6,"MEAN_MOTION_DOT":3.1e-7,"MEAN_MOTION_DDOT":0},{"OBJECT_NAME":"IRIDIUM 155","OBJECT_ID":"2018-061E","EPOCH":"2026-04-25T20:30:26.506944","MEAN_MOTION":14.34217009,"ECCENTRICITY":0.0002297,"INCLINATION":86.3937,"RA_OF_ASC_NODE":78.554,"ARG_OF_PERICENTER":88.4257,"MEAN_ANOMALY":271.7202,"EPHEMERIS_TYPE":0,"CLASSIFICATION_TYPE":"U","NORAD_CAT_ID":43573,"ELEMENT_SET_NO":999,"REV_AT_EPOCH":40585,"BSTAR":-1.8541e-5,"MEAN_MOTION_DOT":-3.2e-7,"MEAN_MOTION_DDOT":0},{"OBJECT_NAME":"IRIDIUM 154","OBJECT_ID":"2018-061F","EPOCH":"2026-04-25T20:03:02.497248","MEAN_MOTION":14.34217407,"ECCENTRICITY":0.0002334,"INCLINATION":86.3938,"RA_OF_ASC_NODE":78.6928,"ARG_OF_PERICENTER":83.179,"MEAN_ANOMALY":276.9671,"EPHEMERIS_TYPE":0,"CLASSIFICATION_TYPE":"U","NORAD_CAT_ID":43574,"ELEMENT_SET_NO":999,"REV_AT_EPOCH":40590,"BSTAR":1.2586e-5,"MEAN_MOTION_DOT":5.5e-7,"MEAN_MOTION_DDOT":0},{"OBJECT_NAME":"IRIDIUM 163","OBJECT_ID":"2018-061G","EPOCH":"2026-04-25T19:35:38.469408","MEAN_MOTION":14.34218571,"ECCENTRICITY":0.0002231,"INCLINATION":86.3936,"RA_OF_ASC_NODE":78.6176,"ARG_OF_PERICENTER":89.4787,"MEAN_ANOMALY":270.6665,"EPHEMERIS_TYPE":0,"CLASSIFICATION_TYPE":"U","NORAD_CAT_ID":43575,"ELEMENT_SET_NO":999,"REV_AT_EPOCH":40587,"BSTAR":8.4129e-5,"MEAN_MOTION_DOT":2.55e-6,"MEAN_MOTION_DDOT":0},{"OBJECT_NAME":"IRIDIUM 156","OBJECT_ID":"2018-061H","EPOCH":"2026-04-25T20:39:34.521408","MEAN_MOTION":14.34217229,"ECCENTRICITY":0.0002328,"INCLINATION":86.3938,"RA_OF_ASC_NODE":78.6066,"ARG_OF_PERICENTER":87.7658,"MEAN_ANOMALY":272.3804,"EPHEMERIS_TYPE":0,"CLASSIFICATION_TYPE":"U","NORAD_CAT_ID":43576,"ELEMENT_SET_NO":999,"REV_AT_EPOCH":40587,"BSTAR":-1.0967e-5,"MEAN_MOTION_DOT":-1.1e-7,"MEAN_MOTION_DDOT":0},{"OBJECT_NAME":"IRIDIUM 164","OBJECT_ID":"2018-061J","EPOCH":"2026-04-25T20:12:10.433952","MEAN_MOTION":14.34217885,"ECCENTRICITY":0.0002293,"INCLINATION":86.3938,"RA_OF_ASC_NODE":78.6539,"ARG_OF_PERICENTER":82.4675,"MEAN_ANOMALY":277.6781,"EPHEMERIS_TYPE":0,"CLASSIFICATION_TYPE":"U","NORAD_CAT_ID":43577,"ELEMENT_SET_NO":999,"REV_AT_EPOCH":40591,"BSTAR":1.1347e-5,"MEAN_MOTION_DOT":5.2e-7,"MEAN_MOTION_DDOT":0},{"OBJECT_NAME":"IRIDIUM 159","OBJECT_ID":"2018-061K","EPOCH":"2026-04-25T19:26:30.448032","MEAN_MOTION":14.34217544,"ECCENTRICITY":0.0002024,"INCLINATION":86.3937,"RA_OF_ASC_NODE":78.6052,"ARG_OF_PERICENTER":87.6127,"MEAN_ANOMALY":272.5301,"EPHEMERIS_TYPE":0,"CLASSIFICATION_TYPE":"U","NORAD_CAT_ID":43578,"ELEMENT_SET_NO":999,"REV_AT_EPOCH":40587,"BSTAR":-2.5271e-5,"MEAN_MOTION_DOT":-5.1e-7,"MEAN_MOTION_DDOT":0},{"OBJECT_NAME":"IRIDIUM 180","OBJECT_ID":"2019-002A","EPOCH":"2026-04-25T19:25:46.884288","MEAN_MOTION":14.34217907,"ECCENTRICITY":0.0002084,"INCLINATION":86.4015,"RA_OF_ASC_NODE":15.4859,"ARG_OF_PERICENTER":85.4872,"MEAN_ANOMALY":274.6562,"EPHEMERIS_TYPE":0,"CLASSIFICATION_TYPE":"U","NORAD_CAT_ID":43922,"ELEMENT_SET_NO":999,"REV_AT_EPOCH":38148,"BSTAR":4.1009e-5,"MEAN_MOTION_DOT":1.35e-6,"MEAN_MOTION_DDOT":0},{"OBJECT_NAME":"IRIDIUM 176","OBJECT_ID":"2019-002B","EPOCH":"2026-04-25T18:08:28.171104","MEAN_MOTION":14.72256754,"ECCENTRICITY":0.0002507,"INCLINATION":86.6135,"RA_OF_ASC_NODE":15.4593,"ARG_OF_PERICENTER":82.3554,"MEAN_ANOMALY":277.7948,"EPHEMERIS_TYPE":0,"CLASSIFICATION_TYPE":"U","NORAD_CAT_ID":43923,"ELEMENT_SET_NO":999,"REV_AT_EPOCH":39153,"BSTAR":0.00010582,"MEAN_MOTION_DOT":6.92e-6,"MEAN_MOTION_DDOT":0},{"OBJECT_NAME":"IRIDIUM 168","OBJECT_ID":"2019-002C","EPOCH":"2026-04-25T17:36:12.126816","MEAN_MOTION":14.34219729,"ECCENTRICITY":0.0002157,"INCLINATION":86.4017,"RA_OF_ASC_NODE":15.5934,"ARG_OF_PERICENTER":84.5324,"MEAN_ANOMALY":275.6118,"EPHEMERIS_TYPE":0,"CLASSIFICATION_TYPE":"U","NORAD_CAT_ID":43924,"ELEMENT_SET_NO":999,"REV_AT_EPOCH":38145,"BSTAR":6.9916e-5,"MEAN_MOTION_DOT":2.16e-6,"MEAN_MOTION_DDOT":0}]
