IRIDIUM 152             
1 43479U 18047D   26115.70567397  .00000019  00000+0 -41635-6 0  9991
2 43479  86.3921 110.2800 0002096  92.1014 268.0422 14.34217544414967
IRIDIUM 147             
1 43480U 18047E   26115.71201671 -.00000004  00000+0 -84867-5 0  9992
2 43480  86.3924 110.2817 0002241  87.0832 273.0620 14.34217317414967
IRIDIUM 110             
1 43481U 18047F   26115.71835741  .00000009  00000+0 -37447-5 0  9990
2 43481  86.3927 110.3695 0001842  95.1421 264.9985 14.34217598414959
IRIDIUM 162             
1 43482U 18047G   26115.67924675  .00000159  00000+0  41328-4 0  9998
2 43482  86.4444 110.3222 0002402  92.0412 268.1064 14.43281104417557
IRIDIUM 160             
1 43569U 18061A   26115.87350049  .00000014  00000+0 -19445-5 0  9997
2 43569  86.3940  78.6681 0002025  85.8595 274.2832 14.34217090405877
IRIDIUM 166             
1 43570U 18061B   26115.82912255  .00000273  00000+0  90382-4 0  9991
2 43570  86.3936  78.6374 0002365  84.3904 275.7561 14.34217825405891
IRIDIUM 158             
1 43571U 18061C   26115.86715837 -.00000002  00000+0 -78776-5 0  9999
2 43571  86.3939  78.6318 0002173  89.8171 270.3273 14.34217417405861
IRIDIUM 165             
1 43572U 18061D   26115.82276057  .00000031  00000+0  38487-5 0  9997
2 43572  86.3938  78.6953 0002370  84.2210 275.9256 14.34217496405889
IRIDIUM 155             
1 43573U 18061E   26115.85447346 -.00000032  00000+0 -18541-4 0  9993
2 43573  86.3937  78.5540 0002297  88.4257 271.7202 14.34217009405857
IRIDIUM 154             
1 43574U 18061F   26115.83544557  .00000055  00000+0  12586-4 0  9990
2 43574  86.3938  78.6928 0002334  83.1790 276.9671 14.34217407405901
IRIDIUM 163             
1 43575U 18061G   26115.81641747  .00000255  00000+0  84129-4 0  9992
2 43575  86.3936  78.6176 0002231  89.4787 270.6665 14.34218571405879
IRIDIUM 156             
1 43576U 18061H   26115.86081622 -.00000011  00000+0 -10967-4 0  9999
2 43576  86.3938  78.6066 0002328  87.7658 272.3804 14.34217229405878
IRIDIUM 164             
1 43577U 18061J   26115.84178743  .00000052  00000+0  11347-4 0  9995
2 43577  86.3938  78.6539 0002293  82.4675 277.6781 14.34217885405911
IRIDIUM 159             
1 43578U 18061K   26115.81007463 -.00000051  00000+0 -25271-4 0  9995
2 43578  86.3937  78.6052 0002024  87.6127 272.5301 14.34217544405871
IRIDIUM 180             
1 43922U 19002A   26115.80957042  .00000135  00000+0  41009-4 0  9998
2 43922  86.4015  15.4859 0002084  85.4872 274.6562 14.34217907381480
IRIDIUM 176             
1 43923U 19002B   26115.75588161  .00000692  00000+0  10582-3 0  9994
2 43923  86.6135  15.4593 0002507  82.3554 277.7948 14.72256754391538
IRIDIUM 168             
1 43924U 19002C   26115.73347369  .00000216  00000+0  69916-4 0  9994
2 43924  86.4017  15.5934 0002157  84.5324 275.6118 14.34219729381451
